JINJUSAT-1B             
1 63210U 25052A   26068.66363707  .00019955  00000+0  68430-3 0  9998
2 63210  97.4113 325.4613 0005550  82.1930 277.9941 15.30194857 54866
STARLINK-34446          
1 65495U 25198D   26068.92417582  .00030076  00000+0  10240-2 0  9998
2 65495  53.1580 270.0765 0001123 189.3173 170.7807 15.30184011 28654
